{"type":"FeatureCollection","features":[{"type":"Feature","id":413380,"geometry":{"type":"Polygon","coordinates":[[[152.992453799827,-27.5629806575926],[152.991781954023,-27.5631353078032],[152.991567379045,-27.5625472206949],[152.992959988048,-27.5599122649411],[152.993415062415,-27.5596532224777],[152.993892160715,-27.5596505927822],[152.994323494423,-27.5603430619402],[152.992453799827,-27.5629806575926]]]},"properties":{"OBJECTID":413380,"EVENT_ID":"INCD-984463-g","TYPE":"UNPLANNED","STATUS":"In Progress","CUSTOMERS_AFFECTED":6,"SUBURBS":"ROCKLEA","STREETS":"COLLINSVALE ST, DONALDSON RD, IPSWICH RD","START":1790804464783,"FINISH":null,"EST_FIX_TIME":1790859600000,"REASON":"Emergency repairs in-progress","CRC":"5635D3FD","EXTRACTED":1790836203561,"SHAPE__Area":60457.58203125,"SHAPE__Length":1124.0841435638536}}]}