{"type":"FeatureCollection","features":[{"type":"Feature","id":413349,"geometry":{"type":"Polygon","coordinates":[[[153.222083633224,-27.769642857457],[153.222363028848,-27.7691085333105],[153.22299842419,-27.7692753627711],[153.227458578426,-27.7754300783884],[153.227536265139,-27.7756236204346],[153.227820485898,-27.777846109611],[153.227823649144,-27.7778887060915],[153.227970172719,-27.7848757848404],[153.227537219902,-27.7853306905751],[153.226974412608,-27.7850071738057],[153.222083633224,-27.769642857457]]]},"properties":{"OBJECTID":413349,"EVENT_ID":"INCD-981881-g","TYPE":"PLANNED","STATUS":"Scheduled","CUSTOMERS_AFFECTED":5,"SUBURBS":"LUSCOMBE, YATALA","STREETS":"PEACHEY RD, SANDY CREEK RD","START":1791064800000,"FINISH":null,"EST_FIX_TIME":1791093600000,"REASON":"Planned Maintenance","CRC":"65242B9D","EXTRACTED":1790632805051,"SHAPE__Area":519062.203125,"SHAPE__Length":4417.4594771698194}},{"type":"Feature","id":413359,"geometry":{"type":"Polygon","coordinates":[[[153.402263200167,-27.9776367556024],[153.402008789798,-27.9772472236978],[153.402008440965,-27.9771514939458],[153.402009411698,-27.9771221171543],[153.402018302434,-27.9769947471375],[153.402381379827,-27.9765898830675],[153.402565018524,-27.976541603662],[153.402707690376,-27.976523028062],[153.402778870501,-27.9765228178782],[153.402793889953,-27.9765229705067],[153.403139658172,-27.9765310201245],[153.403320155804,-27.9765649524536],[153.403920074103,-27.9767845817941],[153.404233302783,-27.9771688329343],[153.40426238475,-27.9775207929561],[153.403638187122,-27.9779930260196],[153.402558373105,-27.9777660352394],[153.40242152156,-27.9777178163218],[153.402263200167,-27.9776367556024]]]},"properties":{"OBJECTID":413359,"EVENT_ID":"INCD-786844-g","TYPE":"PLANNED","STATUS":"Cancelled","CUSTOMERS_AFFECTED":24,"SUBURBS":"SOUTHPORT","STREETS":"ALICIA ST, LOUISE ST","START":1791151200000,"FINISH":null,"EST_FIX_TIME":1791176400000,"REASON":"Planned Maintenance","CRC":"FF9CDD0F","EXTRACTED":1790719205035,"SHAPE__Area":34284.61328125,"SHAPE__Length":687.95466942208884}},{"type":"Feature","id":413363,"geometry":{"type":"Polygon","coordinates":[[[153.061115647452,-26.6525580125501],[153.060742319174,-26.652054506022],[153.060757029812,-26.6519649957991],[153.060781917185,-26.6518145096241],[153.060839388837,-26.6514689103628],[153.061317942932,-26.6510844771032],[153.06255958771,-26.6510437072177],[153.062719103572,-26.6510615928608],[153.062970172725,-26.6511276421371],[153.063324990993,-26.6514889025125],[153.063448054156,-26.6521733226401],[153.06330916373,-26.6525628976527],[153.063074984009,-26.6527755082333],[153.062594193491,-26.6528954939022],[153.061115647452,-26.6525580125501]]]},"properties":{"OBJECTID":413363,"EVENT_ID":"INCD-980567-g","TYPE":"PLANNED","STATUS":"Cancelled","CUSTOMERS_AFFECTED":24,"SUBURBS":"MAROOCHYDORE","STREETS":"DEPOT ST, SERVICE ST","START":1791153000000,"FINISH":null,"EST_FIX_TIME":1791174600000,"REASON":"Planned Maintenance","CRC":"DB9F294D","EXTRACTED":1790721003758,"SHAPE__Area":55106.91015625,"SHAPE__Length":865.68255219353387}},{"type":"Feature","id":413377,"geometry":{"type":"Polygon","coordinates":[[[152.950614103152,-27.3231667486941],[152.950422297337,-27.3225937883733],[152.952157708761,-27.3192447549492],[152.952646653458,-27.3189837561599],[152.953097116196,-27.3192951413425],[152.954330260617,-27.3226924270526],[152.954354259607,-27.3228089853851],[152.954401262406,-27.3236442660674],[152.954186171151,-27.3240368280738],[152.953680628208,-27.3243526476094],[152.953508713747,-27.3244217262131],[152.953255984335,-27.3244758109661],[152.952871368285,-27.3244201876616],[152.950614103152,-27.3231667486941]]]},"properties":{"OBJECTID":413377,"EVENT_ID":"INCD-981995-g","TYPE":"PLANNED","STATUS":"Scheduled","CUSTOMERS_AFFECTED":22,"SUBURBS":"WARNER","STREETS":"HALCYON ST, WALLUM CRES, WARNER RD","START":1791235800000,"FINISH":null,"EST_FIX_TIME":1791264600000,"REASON":"Planned Maintenance","CRC":"18AB84AB","EXTRACTED":1790803803665,"SHAPE__Area":187372.296875,"SHAPE__Length":1743.9254325366937}},{"type":"Feature","id":413378,"geometry":{"type":"Polygon","coordinates":[[[152.945240380073,-27.3234668554189],[152.944672125098,-27.3232286892331],[152.944801732225,-27.3226801272973],[152.947440069712,-27.3207240139285],[152.948075762198,-27.3207168416329],[152.949532811259,-27.3217427382466],[152.949371282522,-27.3225279361686],[152.948387818973,-27.3228036373607],[152.948352322414,-27.3228123335102],[152.945240380073,-27.3234668554189]]]},"properties":{"OBJECTID":413378,"EVENT_ID":"INCD-982077-g","TYPE":"PLANNED","STATUS":"Scheduled","CUSTOMERS_AFFECTED":6,"SUBURBS":"WARNER","STREETS":"PADDY RD, WARNER RD, WHIMBREL ST","START":1791235800000,"FINISH":null,"EST_FIX_TIME":1791262800000,"REASON":"Planned Maintenance","CRC":"53671209","EXTRACTED":1790803803665,"SHAPE__Area":106222.01953125,"SHAPE__Length":1375.3414257143777}},{"type":"Feature","id":413379,"geometry":{"type":"Polygon","coordinates":[[[153.011458602964,-27.4574808022604],[153.010772354686,-27.4569570975049],[153.010952412313,-27.4562990735882],[153.010963121775,-27.4562655965668],[153.011019532051,-27.4561119769618],[153.011054402723,-27.4560392685788],[153.011129643286,-27.4559140287762],[153.011232405162,-27.4557955822881],[153.012042835062,-27.4551281542905],[153.012889111779,-27.4554109846257],[153.012934453102,-27.4557826048283],[153.012835889549,-27.4561026824482],[153.012259820235,-27.4567863133514],[153.012248603237,-27.456799136927],[153.011907104261,-27.4571753680675],[153.011890426666,-27.4571928162996],[153.011761961343,-27.4573205012644],[153.011580042779,-27.45743565219],[153.011458602964,-27.4574808022604]]]},"properties":{"OBJECTID":413379,"EVENT_ID":"INCD-980715-g","TYPE":"PLANNED","STATUS":"Scheduled","CUSTOMERS_AFFECTED":43,"SUBURBS":"RED HILL","STREETS":"UPPER CLIFTON TCE","START":1791235800000,"FINISH":null,"EST_FIX_TIME":1791261000000,"REASON":"Planned Maintenance","CRC":"A0E12E98","EXTRACTED":1790803803665,"SHAPE__Area":41919.30859375,"SHAPE__Length":802.68035461514}},{"type":"Feature","id":413381,"geometry":{"type":"Polygon","coordinates":[[[152.947796622996,-27.4294656099604],[152.94777700483,-27.4293379280804],[152.947791571941,-27.4274785082511],[152.948232179001,-27.4270340327366],[152.948785567834,-27.4273631205588],[152.951467485562,-27.4361552720444],[152.951476923056,-27.4361922855836],[152.952057275811,-27.4390116827701],[152.951679926417,-27.4395316858279],[152.951076081901,-27.4392259159894],[152.948981724894,-27.4331496692693],[152.948979008242,-27.4331415143954],[152.947796622996,-27.4294656099604]]]},"properties":{"OBJECTID":413381,"EVENT_ID":"INCD-981096-g","TYPE":"PLANNED","STATUS":"Scheduled","CUSTOMERS_AFFECTED":16,"SUBURBS":"KEPERRA, THE GAP","STREETS":"CHAPROWE RD, SETTLEMENT RD, YARRABEE RD","START":1791237600000,"FINISH":null,"EST_FIX_TIME":1791266400000,"REASON":"Planned Maintenance","CRC":"80E43EBD","EXTRACTED":1790805603513,"SHAPE__Area":240897.953125,"SHAPE__Length":3336.9325527715891}},{"type":"Feature","id":413382,"geometry":{"type":"Polygon","coordinates":[[[152.942638970465,-27.6216212573222],[152.942632512234,-27.6214631201005],[152.942696333332,-27.6210592395267],[152.942696935985,-27.6210555369711],[152.944130373285,-27.6124980415958],[152.944132809967,-27.6124848376877],[152.944233782019,-27.6119841684064],[152.944609122197,-27.61162618151],[152.945219839652,-27.6114895813895],[152.945821914735,-27.6117792665397],[152.954013180346,-27.6327810352154],[152.953350687952,-27.633349858291],[152.951582721147,-27.6327373290161],[152.951433896675,-27.6326572658325],[152.944026118912,-27.6269195395762],[152.94386330877,-27.6266741706182],[152.942638970465,-27.6216212573222]]]},"properties":{"OBJECTID":413382,"EVENT_ID":"INCD-980754-g","TYPE":"PLANNED","STATUS":"Cancelled","CUSTOMERS_AFFECTED":27,"SUBURBS":"ELLEN GROVE, FOREST LAKE","STREETS":"BOYNE ST, CONSIDINE ST, JOHNSON RD, LOGAN MWY, ROXWELL ST, WATERFORD RD, WOOGAROO ST","START":1791237600000,"FINISH":null,"EST_FIX_TIME":1791261000000,"REASON":"Planned Maintenance","CRC":"BCD591A2","EXTRACTED":1790805603513,"SHAPE__Area":1569829.62109375,"SHAPE__Length":6337.4046436700846}},{"type":"Feature","id":413383,"geometry":{"type":"Polygon","coordinates":[[[153.034011251384,-27.5547348521895],[153.033417164918,-27.5549297859268],[153.033073775771,-27.5544557712634],[153.033156505401,-27.5537339725952],[153.033157774872,-27.5537239955753],[153.0332493724,-27.5530692357027],[153.034137613106,-27.5528325164432],[153.03442139258,-27.553129684905],[153.034542144895,-27.5534173714323],[153.034546947371,-27.5538130315199],[153.034474150486,-27.5540511209568],[153.034011251384,-27.5547348521895]]]},"properties":{"OBJECTID":413383,"EVENT_ID":"INCD-981760-g","TYPE":"PLANNED","STATUS":"Scheduled","CUSTOMERS_AFFECTED":12,"SUBURBS":"SALISBURY","STREETS":"AINGER ST, AIRD ST, HENSON RD","START":1791237600000,"FINISH":null,"EST_FIX_TIME":1791262800000,"REASON":"Planned Maintenance","CRC":"2DBACCC0","EXTRACTED":1790805603513,"SHAPE__Area":31696.296875,"SHAPE__Length":687.91764493899518}},{"type":"Feature","id":413384,"geometry":{"type":"Polygon","coordinates":[[[153.259649276426,-27.5215800211524],[153.259628914118,-27.5213036922857],[153.25993995841,-27.5202000328799],[153.259942639893,-27.5201909215676],[153.260039311461,-27.5198758721963],[153.260242330296,-27.5196221013409],[153.260531649808,-27.519446121975],[153.261047737791,-27.5194172152983],[153.261526356873,-27.5196357042588],[153.261768835849,-27.5201979605242],[153.260893532633,-27.5222496933747],[153.26042382184,-27.5225406024444],[153.259949613595,-27.5222555517693],[153.259649276426,-27.5215800211524]]]},"properties":{"OBJECTID":413384,"EVENT_ID":"INCD-974923-g","TYPE":"PLANNED","STATUS":"Scheduled","CUSTOMERS_AFFECTED":16,"SUBURBS":"ORMISTON","STREETS":"BAINBRIDGE ST, HANSEN CT, NELSON ST","START":1791237600000,"FINISH":null,"EST_FIX_TIME":1791262800000,"REASON":"Planned Maintenance","CRC":"2C839B25","EXTRACTED":1790805603513,"SHAPE__Area":61859.84765625,"SHAPE__Length":984.93879858864977}},{"type":"Feature","id":413385,"geometry":{"type":"Polygon","coordinates":[[[152.978904293918,-26.7879831330083],[152.979064900509,-26.7871760593947],[152.984355212473,-26.7859356532076],[152.984958085657,-26.7865191074664],[152.983616628605,-26.7900235816],[152.982906329753,-26.7902762602913],[152.981548476672,-26.789633878577],[152.981495309482,-26.7896048175348],[152.978904293918,-26.7879831330083]]]},"properties":{"OBJECTID":413385,"EVENT_ID":"INCD-982124-g","TYPE":"PLANNED","STATUS":"Scheduled","CUSTOMERS_AFFECTED":6,"SUBURBS":"LANDSBOROUGH","STREETS":"KOWALD RD","START":1791237600000,"FINISH":null,"EST_FIX_TIME":1791262800000,"REASON":"Planned Maintenance","CRC":"9B2715AD","EXTRACTED":1790805603513,"SHAPE__Area":214685.71875,"SHAPE__Length":1887.3096136152114}},{"type":"Feature","id":413386,"geometry":{"type":"Polygon","coordinates":[[[152.596378804314,-27.5662017083629],[152.596938902604,-27.5657013640637],[152.600638898027,-27.5660743613119],[152.601088109713,-27.5665056199168],[152.601102111394,-27.5668315695835],[152.600964893943,-27.5671581223151],[152.599159864415,-27.5688679978671],[152.598389729903,-27.5688342285026],[152.596511442838,-27.5666620538014],[152.596409493187,-27.5664383584912],[152.596378804314,-27.5662017083629]]]},"properties":{"OBJECTID":413386,"EVENT_ID":"INCD-968930-g","TYPE":"PLANNED","STATUS":"Scheduled","CUSTOMERS_AFFECTED":22,"SUBURBS":"MARBURG","STREETS":"EDMOND ST, KENNEDY ST","START":1791237600000,"FINISH":null,"EST_FIX_TIME":1791261000000,"REASON":"Planned Maintenance","CRC":"F9857571","EXTRACTED":1790805603513,"SHAPE__Area":134447.1796875,"SHAPE__Length":1445.2991594159328}},{"type":"Feature","id":413387,"geometry":{"type":"Polygon","coordinates":[[[152.891712999485,-28.03963763538],[152.891120395258,-28.0395405075024],[152.891048078944,-28.0390096832577],[152.895011916417,-28.0327749447455],[152.895344927302,-28.0325560293519],[152.914753373788,-28.0287385825337],[152.915343913024,-28.0290309184233],[152.915085408773,-28.0295853853148],[152.891712999485,-28.03963763538]]]},"properties":{"OBJECTID":413387,"EVENT_ID":"INCD-979775-g","TYPE":"PLANNED","STATUS":"Scheduled","CUSTOMERS_AFFECTED":5,"SUBURBS":"JOSEPHVILLE","STREETS":"THE HOLLOW RD","START":1791237600000,"FINISH":null,"EST_FIX_TIME":1791264600000,"REASON":"Planned Maintenance","CRC":"C1B10125","EXTRACTED":1790805603513,"SHAPE__Area":1092386.79296875,"SHAPE__Length":6341.1667337271929}},{"type":"Feature","id":413388,"geometry":{"type":"Polygon","coordinates":[[[152.923476212464,-26.5154059208727],[152.923539717168,-26.5150229824782],[152.929506282797,-26.5070273185123],[152.92962328935,-26.5069167982608],[152.937347538019,-26.5017436435036],[152.937761287151,-26.5016661538952],[152.941581634144,-26.5024690107717],[152.941746530927,-26.5025334139831],[152.949567568326,-26.5072409882082],[152.949787524121,-26.5076641219656],[152.949053720888,-26.5138523442039],[152.948784302639,-26.5142059003306],[152.9365457215,-26.5198695207943],[152.936517388712,-26.5198816384498],[152.926859000366,-26.523683733707],[152.92617766403,-26.5234014298435],[152.923476212464,-26.5154059208727]]]},"properties":{"OBJECTID":413388,"EVENT_ID":"INCD-980435-g","TYPE":"PLANNED","STATUS":"Scheduled","CUSTOMERS_AFFECTED":84,"SUBURBS":"EUMUNDI, NORTH ARM","STREETS":"BUNYA RD, BURTONS RD, GOLD CREEK RD, KROMES RD, RUNNING CREEK RD","START":1791237600000,"FINISH":null,"EST_FIX_TIME":1791262800000,"REASON":"Planned Maintenance","CRC":"ADFB3855","EXTRACTED":1790805603513,"SHAPE__Area":4842871.97265625,"SHAPE__Length":8610.4266647275927}},{"type":"Feature","id":413389,"geometry":{"type":"Polygon","coordinates":[[[152.215743011187,-27.5815973605818],[152.215823943443,-27.5809345766122],[152.221064264452,-27.5775190267919],[152.221341389492,-27.5774323874082],[152.237276996219,-27.5768160565424],[152.237543855237,-27.5768718727293],[152.241022887843,-27.5785837372337],[152.241284499543,-27.5789710904921],[152.24133116165,-27.5813851803673],[152.241330892989,-27.5814095792503],[152.241167881127,-27.5853499499043],[152.24115909184,-27.5854186450456],[152.240795759582,-27.5871003163713],[152.240362848597,-27.5874626750058],[152.234361163177,-27.5881493481838],[152.234213950764,-27.5881469668729],[152.221670570823,-27.586296959433],[152.221453881933,-27.58621572393],[152.218272676411,-27.5841383674982],[152.218192139698,-27.5840727967651],[152.215743011187,-27.5815973605818]]]},"properties":{"OBJECTID":413389,"EVENT_ID":"INCD-982128-g","TYPE":"PLANNED","STATUS":"Scheduled","CUSTOMERS_AFFECTED":32,"SUBURBS":"LOWER TENTHILL","STREETS":"CLARKES RD, DWYERS RD, GATTON-CLIFTON RD, LOWER TENTHILL RD, MCLUCAS RD, TENTHILL CREEK RD, WELLS RD","START":1791237600000,"FINISH":null,"EST_FIX_TIME":1791252000000,"REASON":"Planned Maintenance","CRC":"BB5535CB","EXTRACTED":1790805603513,"SHAPE__Area":3205785.79296875,"SHAPE__Length":7235.1777663701932}},{"type":"Feature","id":413390,"geometry":{"type":"Polygon","coordinates":[[[152.976049542983,-26.7871767507743],[152.97552573268,-26.7867714396102],[152.975947977677,-26.7862798389218],[152.977391612797,-26.7860759601489],[152.977457875672,-26.7860705992791],[152.984470408448,-26.78592111885],[152.984985062818,-26.7863565611848],[152.984505777456,-26.7868233888692],[152.976049542983,-26.7871767507743]]]},"properties":{"OBJECTID":413390,"EVENT_ID":"INCD-982142-g","TYPE":"PLANNED","STATUS":"Scheduled","CUSTOMERS_AFFECTED":3,"SUBURBS":"LANDSBOROUGH","STREETS":"KOWALD RD","START":1791237600000,"FINISH":null,"EST_FIX_TIME":1791262800000,"REASON":"Planned Maintenance","CRC":"5E2EED00","EXTRACTED":1790805603513,"SHAPE__Area":121100.5390625,"SHAPE__Length":2205.6544431561688}},{"type":"Feature","id":413391,"geometry":{"type":"Polygon","coordinates":[[[153.026519114689,-27.226388619245],[153.026145515306,-27.2258922561909],[153.026203556823,-27.2255017160931],[153.026221733796,-27.2254277019922],[153.026617618788,-27.224284213167],[153.027415627322,-27.2240653059578],[153.028290376819,-27.2246914644855],[153.028412051479,-27.2248181049445],[153.028511111784,-27.2249714648997],[153.028567604385,-27.2251027502703],[153.028842848727,-27.2262527391849],[153.028222091124,-27.2267841008939],[153.026519114689,-27.226388619245]]]},"properties":{"OBJECTID":413391,"EVENT_ID":"INCD-980291-g","TYPE":"PLANNED","STATUS":"Scheduled","CUSTOMERS_AFFECTED":51,"SUBURBS":"MANGO HILL","STREETS":"CHELMSFORD RD","START":1791237600000,"FINISH":null,"EST_FIX_TIME":1791262800000,"REASON":"Planned Maintenance","CRC":"0D737FB4","EXTRACTED":1790805603513,"SHAPE__Area":71522.33984375,"SHAPE__Length":1000.957266597339}},{"type":"Feature","id":413392,"geometry":{"type":"Polygon","coordinates":[[[152.714816623971,-27.0675363497942],[152.714374354289,-27.0670729700807],[152.715686183577,-27.032544645786],[152.716045042133,-27.0321276299305],[152.73013114651,-27.0283397995533],[152.730487681065,-27.0283623953311],[152.775067039756,-27.0468101366186],[152.775347040308,-27.0471190788577],[152.77702564864,-27.053674713677],[152.777012897127,-27.0539173466263],[152.77153040483,-27.0687567653072],[152.771526540751,-27.0687668236865],[152.769745345893,-27.0732314200646],[152.769208972295,-27.073527639147],[152.714816623971,-27.0675363497942]]]},"properties":{"OBJECTID":413392,"EVENT_ID":"INCD-979384-g","TYPE":"PLANNED","STATUS":"Scheduled","CUSTOMERS_AFFECTED":105,"SUBURBS":"MOUNT DELANEY, MOUNT MEE","STREETS":"BEANLAND RD, FLORENCE LANE, HAUSMANN RD, HEISNER RD, MCLEAN RD, MT MEE RD, NINE V RD, ROBINSON RD, SETTLEMENT RD, THOMAS RD, WOODS RD","START":1791237600000,"FINISH":null,"EST_FIX_TIME":1791262800000,"REASON":"Planned Maintenance","CRC":"A2485352","EXTRACTED":1790805603513,"SHAPE__Area":28983244.51953125,"SHAPE__Length":21247.889592137497}},{"type":"Feature","id":413394,"geometry":{"type":"Polygon","coordinates":[[[153.409858666671,-28.0677721456947],[153.409858844342,-28.0673042777091],[153.410852378389,-28.0658512113215],[153.410867538848,-28.0658303540665],[153.411346799889,-28.0652091854306],[153.412213076076,-28.065247442626],[153.412305686242,-28.0653975719386],[153.41234531076,-28.0654805459368],[153.412929378138,-28.0671512138544],[153.412768636132,-28.0676319991128],[153.412695885474,-28.0676856391774],[153.412682212953,-28.0676953717777],[153.412014121937,-28.068154383338],[153.411852815801,-28.0682287682511],[153.410937613264,-28.0684797194471],[153.410824584553,-28.0684986415581],[153.410716914107,-28.0685056518983],[153.41032437809,-28.0683786236155],[153.410244587536,-28.0683095928048],[153.410164625355,-28.0682202866138],[153.409858666671,-28.0677721456947]]]},"properties":{"OBJECTID":413394,"EVENT_ID":"INCD-977866-g","TYPE":"PLANNED","STATUS":"Scheduled","CUSTOMERS_AFFECTED":45,"SUBURBS":"ROBINA","STREETS":"BILGOLA PL, CAMMERAY CT, CORIO CT, MANLY DR","START":1791239400000,"FINISH":null,"EST_FIX_TIME":1791264600000,"REASON":"Planned Maintenance","CRC":"1309EB30","EXTRACTED":1790807404360,"SHAPE__Area":96579.703125,"SHAPE__Length":1182.2027086642402}},{"type":"Feature","id":413395,"geometry":{"type":"Polygon","coordinates":[[[153.385324904565,-27.6647772664453],[153.384814846399,-27.664257564853],[153.384843023947,-27.6640939016227],[153.384860874532,-27.6640258862405],[153.384969565956,-27.6637206286529],[153.385007195989,-27.6636418232857],[153.385311447805,-27.6631423949258],[153.385703057849,-27.6629087977633],[153.387152792453,-27.6627704781427],[153.387193225413,-27.6627680705279],[153.387406044183,-27.6627629909265],[153.387683547389,-27.6628288190425],[153.388706125462,-27.6633839657348],[153.388628787586,-27.6641890536282],[153.38712166245,-27.6647201864019],[153.386944048727,-27.6647517951406],[153.385324904565,-27.6647772664453]]]},"properties":{"OBJECTID":413395,"EVENT_ID":"INCD-979233-g","TYPE":"PLANNED","STATUS":"Scheduled","CUSTOMERS_AFFECTED":21,"SUBURBS":"RUSSELL ISLAND","STREETS":"CRYSTAL ST, JUPITER ST, PEARL ST, SATURN ST","START":1791241200000,"FINISH":null,"EST_FIX_TIME":1791262800000,"REASON":"Planned Maintenance","CRC":"DDD124A1","EXTRACTED":1790809206726,"SHAPE__Area":85768.68359375,"SHAPE__Length":1129.5840894509959}},{"type":"Feature","id":413397,"geometry":{"type":"Polygon","coordinates":[[[153.17131790168,-27.4467556039559],[153.171376576567,-27.4461195254163],[153.171464626933,-27.4460528861691],[153.171702510464,-27.445952817553],[153.172828385915,-27.4457724383345],[153.173404579089,-27.4463399167765],[153.173080433854,-27.4473593773739],[153.172334706105,-27.44762398546],[153.172023794746,-27.4474587348556],[153.171897583256,-27.4473636481003],[153.171489863855,-27.4469366171505],[153.171489051949,-27.4469357646467],[153.17131790168,-27.4467556039559]]]},"properties":{"OBJECTID":413397,"EVENT_ID":"INCD-980724-g","TYPE":"PLANNED","STATUS":"Scheduled","CUSTOMERS_AFFECTED":22,"SUBURBS":"WYNNUM","STREETS":"CLARA ST, TINGAL RD","START":1791280800000,"FINISH":null,"EST_FIX_TIME":1791309600000,"REASON":"Planned Maintenance","CRC":"6207C936","EXTRACTED":1790848805407,"SHAPE__Area":38371.30078125,"SHAPE__Length":726.37869107969175}},{"type":"Feature","id":413403,"geometry":{"type":"Polygon","coordinates":[[[152.867876970002,-27.5678126579162],[152.8679531883,-27.5675029249452],[152.868917991543,-27.5661754879999],[152.869626582771,-27.5660467922511],[152.870136731953,-27.5663537908703],[152.87035547434,-27.5666690842568],[152.870532199879,-27.5678678640446],[152.870504058396,-27.568085644805],[152.869670735296,-27.5700589776762],[152.86947936653,-27.5702745385129],[152.869050285835,-27.570531728921],[152.86826621961,-27.5702215190438],[152.867876970002,-27.5678126579162]]]},"properties":{"OBJECTID":413403,"EVENT_ID":"INCD-980284-g","TYPE":"PLANNED","STATUS":"Scheduled","CUSTOMERS_AFFECTED":26,"SUBURBS":"MOGGILL","STREETS":"CAMELLIA LANE, CHRISTCHURCH ST, ROSEMARY LANE, SAMARAI ST, WITTY RD","START":1791322200000,"FINISH":null,"EST_FIX_TIME":1791347400000,"REASON":"Planned Maintenance","CRC":"BD864C7E","EXTRACTED":1790890204463,"SHAPE__Area":118201.45703125,"SHAPE__Length":1370.9709012678445}},{"type":"Feature","id":413404,"geometry":{"type":"Polygon","coordinates":[[[152.96283422905,-27.5806520662898],[152.963121241762,-27.5801054083024],[152.965831052792,-27.5790816313779],[152.966439973011,-27.579233540376],[152.966868214205,-27.5797637691653],[152.966962604058,-27.5800560607186],[152.966883729609,-27.5811623104348],[152.966307418186,-27.5815806584381],[152.963329426165,-27.5812063878295],[152.96291542806,-27.5808904962149],[152.96283422905,-27.5806520662898]]]},"properties":{"OBJECTID":413404,"EVENT_ID":"INCD-982662-g","TYPE":"PLANNED","STATUS":"Scheduled","CUSTOMERS_AFFECTED":7,"SUBURBS":"INALA, RICHLANDS","STREETS":"DEODAR ST, EUGENIA ST, FREEMAN RD","START":1791322200000,"FINISH":null,"EST_FIX_TIME":1791349200000,"REASON":"Planned Maintenance","CRC":"E2FA6795","EXTRACTED":1790890204463,"SHAPE__Area":100857,"SHAPE__Length":1243.1893910066}},{"type":"Feature","id":413405,"geometry":{"type":"Polygon","coordinates":[[[152.403597116473,-27.8082255846155],[152.403620857154,-27.8080244122055],[152.420778363552,-27.7635435628516],[152.421054871228,-27.7632765044041],[152.453232013361,-27.7507429862407],[152.453784074662,-27.7508284046327],[152.49433985748,-27.7849150308283],[152.49446847454,-27.7853970251649],[152.4920321242,-27.7913721923347],[152.491814200804,-27.7916063741808],[152.417904021481,-27.8306181853438],[152.417226982806,-27.8304861881053],[152.404448874459,-27.8140063622276],[152.404362941939,-27.8138048873512],[152.403597116473,-27.8082255846155]]]},"properties":{"OBJECTID":413405,"EVENT_ID":"INCD-980971-g","TYPE":"PLANNED","STATUS":"Scheduled","CUSTOMERS_AFFECTED":46,"SUBURBS":"GRANDCHESTER, MERRYVALE, MT MORT","STREETS":"ALPERS RD, COYNES RD, FRANKLYN VALE RD, GRANDCHESTER MT MORT RD, GREYS PLAINS RD, HODGES RD, KINGS RD, LUNDS RD, MT BEAU BRUMMELL RD, TRALEE RD, WENSLEY RD","START":1791324000000,"FINISH":null,"EST_FIX_TIME":1791349200000,"REASON":"Planned Maintenance","CRC":"C71EE253","EXTRACTED":1790892004785,"SHAPE__Area":57080266.21875,"SHAPE__Length":29995.438040562971}},{"type":"Feature","id":413406,"geometry":{"type":"Polygon","coordinates":[[[152.983081340274,-26.6837124706263],[152.982556600793,-26.6833984576215],[152.982786382803,-26.6828710170761],[152.983311691541,-26.6826010286895],[152.983459639269,-26.682550752648],[152.98663123782,-26.6819624336316],[152.986920644227,-26.68198580124],[152.987439283533,-26.6821734706963],[152.987752427981,-26.6826286419535],[152.987361878136,-26.683032654521],[152.984652897412,-26.68358041632],[152.984588058616,-26.6835895795096],[152.983944526055,-26.6836421508993],[152.983081340274,-26.6837124706263]]]},"properties":{"OBJECTID":413406,"EVENT_ID":"INCD-979491-g","TYPE":"PLANNED","STATUS":"Scheduled","CUSTOMERS_AFFECTED":10,"SUBURBS":"PALMWOODS","STREETS":"WINSTON RD","START":1791324000000,"FINISH":null,"EST_FIX_TIME":1791349200000,"REASON":"Planned Maintenance","CRC":"19CC7E67","EXTRACTED":1790892004785,"SHAPE__Area":77176.390625,"SHAPE__Length":1299.1245027617947}},{"type":"Feature","id":413407,"geometry":{"type":"Polygon","coordinates":[[[152.778561447696,-27.6376861768169],[152.777963064952,-27.6371786271951],[152.777987466163,-27.6370280168608],[152.777987949434,-27.6370251013565],[152.778038670577,-27.6367258716417],[152.778039333971,-27.636722067892],[152.778063924721,-27.6365849281188],[152.778669155962,-27.636214465439],[152.778918174964,-27.6362613048855],[152.779315034693,-27.6367677120244],[152.77928908502,-27.6369271221825],[152.779288583305,-27.6369301327225],[152.779231505349,-27.6372648534406],[152.778827149353,-27.6376401666533],[152.778561447696,-27.6376861768169]]]},"properties":{"OBJECTID":413407,"EVENT_ID":"INCD-982110-g","TYPE":"PLANNED","STATUS":"Scheduled","CUSTOMERS_AFFECTED":8,"SUBURBS":"RACEVIEW","STREETS":"THORNTON ST","START":1791324000000,"FINISH":null,"EST_FIX_TIME":1791347400000,"REASON":"Planned Maintenance","CRC":"9FAC6F5D","EXTRACTED":1790892004785,"SHAPE__Area":19271.99609375,"SHAPE__Length":513.8483844528804}},{"type":"Feature","id":413408,"geometry":{"type":"Polygon","coordinates":[[[152.970503852024,-27.4152355398065],[152.969914499698,-27.4150992025092],[152.969898917136,-27.4145560541366],[152.970176877256,-27.4142087249164],[152.970836312413,-27.4140775509734],[152.97111744137,-27.4142185411312],[152.971062942895,-27.415029199667],[152.970503852024,-27.4152355398065]]]},"properties":{"OBJECTID":413408,"EVENT_ID":"INCD-984501-g","TYPE":"PLANNED","STATUS":"Scheduled","CUSTOMERS_AFFECTED":5,"SUBURBS":"MITCHELTON","STREETS":"CROSS ST, HICKS ST","START":1791324000000,"FINISH":null,"EST_FIX_TIME":1791349200000,"REASON":"Planned Maintenance","CRC":"AEF16CF8","EXTRACTED":1790892004785,"SHAPE__Area":15714.31640625,"SHAPE__Length":469.7742644226642}},{"type":"Feature","id":413409,"geometry":{"type":"Polygon","coordinates":[[[152.93078206864,-27.1450003418258],[152.931183720558,-27.1443678905438],[152.935794232904,-27.1438816815053],[152.935960837172,-27.1438889437515],[152.939087495848,-27.1444989401943],[152.939423824588,-27.1447252322494],[152.939948827273,-27.1455935607353],[152.93981133865,-27.1461670321747],[152.93537801249,-27.1491970425522],[152.935008059213,-27.1492861460511],[152.93406971584,-27.1491794856905],[152.934040467033,-27.1491753776826],[152.933322884469,-27.149055197458],[152.933251667176,-27.1490383772805],[152.932923726231,-27.1489375064316],[152.932627077993,-27.1486947564908],[152.93078206864,-27.1450003418258]]]},"properties":{"OBJECTID":413409,"EVENT_ID":"INCD-981734-g","TYPE":"PLANNED","STATUS":"Scheduled","CUSTOMERS_AFFECTED":58,"SUBURBS":"MORAYFIELD","STREETS":"BRIDGES RD, LINDEN CT, OAKEY FLAT RD","START":1791324000000,"FINISH":null,"EST_FIX_TIME":1791349200000,"REASON":"Planned Maintenance","CRC":"167EAADF","EXTRACTED":1790892004785,"SHAPE__Area":469020.15625,"SHAPE__Length":2678.5311464602873}},{"type":"Feature","id":413410,"geometry":{"type":"Polygon","coordinates":[[[153.054091410326,-27.5890266272469],[153.053680277924,-27.5884032760181],[153.054047430312,-27.5876240369524],[153.054070548937,-27.5875813890072],[153.054153789329,-27.5874464094021],[153.054734135264,-27.5872290431062],[153.054963114278,-27.587286052812],[153.055216583484,-27.5874324792473],[153.055650384858,-27.5878980980737],[153.05570677695,-27.5879726403304],[153.055776256856,-27.588087770582],[153.055804205516,-27.588460532549],[153.055756995541,-27.5885723025452],[153.055396721959,-27.5888531513108],[153.054486748701,-27.5890401816713],[153.054316880985,-27.5890489670734],[153.054091410326,-27.5890266272469]]]},"properties":{"OBJECTID":413410,"EVENT_ID":"INCD-977764-g","TYPE":"PLANNED","STATUS":"Scheduled","CUSTOMERS_AFFECTED":18,"SUBURBS":"SUNNYBANK HILLS","STREETS":"BERTIE ST, GARRO ST","START":1791324000000,"FINISH":null,"EST_FIX_TIME":1791349200000,"REASON":"Planned Maintenance","CRC":"77D21C99","EXTRACTED":1790892004785,"SHAPE__Area":38428.13671875,"SHAPE__Length":719.32887609349427}},{"type":"Feature","id":413411,"geometry":{"type":"Polygon","coordinates":[[[152.893549360935,-27.1423317573483],[152.893709227299,-27.1417784363197],[152.895095845836,-27.1408693384364],[152.895117535096,-27.1408558838676],[152.895778563608,-27.1404683253256],[152.895820623469,-27.140446189518],[152.897027990508,-27.1398791916636],[152.897048437978,-27.1398701108546],[152.897715155275,-27.1395906516348],[152.897821258005,-27.1395584660511],[152.899094563206,-27.1393089172671],[152.899387945055,-27.1393300389282],[152.900401451913,-27.1396882675862],[152.900584925345,-27.139800096641],[152.901225956848,-27.1404145449208],[152.901341869227,-27.1405973560059],[152.901518241727,-27.1411439358912],[152.901537121999,-27.1412963380033],[152.901465726396,-27.1423545976015],[152.901462120169,-27.1423877061546],[152.900955554766,-27.1457495583725],[152.9009496873,-27.145780388202],[152.90055434495,-27.1474960994927],[152.899711727829,-27.1477315230311],[152.893746214903,-27.1426379288862],[152.893636480291,-27.1425005877152],[152.893549360935,-27.1423317573483]]]},"properties":{"OBJECTID":413411,"EVENT_ID":"INCD-980904-g","TYPE":"PLANNED","STATUS":"Scheduled","CUSTOMERS_AFFECTED":26,"SUBURBS":"MORAYFIELD","STREETS":"WINGARA DR","START":1791324000000,"FINISH":null,"EST_FIX_TIME":1791345600000,"REASON":"Planned Maintenance","CRC":"4E5EBB92","EXTRACTED":1790892004785,"SHAPE__Area":574405.30078125,"SHAPE__Length":3001.3404187346327}},{"type":"Feature","id":413412,"geometry":{"type":"Polygon","coordinates":[[[153.020818696392,-27.3438259387191],[153.020409521309,-27.3433038154183],[153.020480222771,-27.3429426455313],[153.020480528176,-27.3429411012195],[153.020581530226,-27.342435501629],[153.020798706097,-27.3421392213922],[153.021253604992,-27.341868311889],[153.021603814441,-27.3417967755816],[153.022038543507,-27.3418508558385],[153.022061181949,-27.3418541411535],[153.022930668047,-27.341998470569],[153.022937440915,-27.3419996375482],[153.022987991095,-27.3420086673244],[153.023391568489,-27.3424984713232],[153.023371388699,-27.3426700015009],[153.023367292942,-27.3426969659739],[153.023347093772,-27.3428053162246],[153.02334662559,-27.342807785293],[153.023296136724,-27.3430696354529],[153.023293672587,-27.3430814694155],[153.023233073347,-27.343352349381],[153.023176700321,-27.343487196696],[153.023095931518,-27.3436139274198],[153.022748527942,-27.3438345272846],[153.021929554024,-27.3439697771966],[153.021766051041,-27.3439727553921],[153.02169528099,-27.3439637156791],[153.021683845276,-27.343962135471],[153.021623175176,-27.3439531158207],[153.021619609538,-27.3439525740129],[153.021387068591,-27.3439164737281],[153.021384878488,-27.343916129295],[153.020818696392,-27.3438259387191]]]},"properties":{"OBJECTID":413412,"EVENT_ID":"INCD-969027-g","TYPE":"PLANNED","STATUS":"Scheduled","CUSTOMERS_AFFECTED":145,"SUBURBS":"CARSELDINE","STREETS":"DORVILLE RD","START":1791324000000,"FINISH":null,"EST_FIX_TIME":1791342000000,"REASON":"Planned Maintenance","CRC":"401B9FBE","EXTRACTED":1790892004785,"SHAPE__Area":72073.1171875,"SHAPE__Length":978.27328662770776}},{"type":"Feature","id":413413,"geometry":{"type":"Polygon","coordinates":[[[152.848051116892,-26.7517298010133],[152.847343636006,-26.7516651610848],[152.847415623409,-26.7510300086888],[152.847613242776,-26.7508853589279],[152.847661958033,-26.7508497168874],[152.848369400725,-26.7509144426689],[152.848297367631,-26.7515495698939],[152.848051116892,-26.7517298010133]]]},"properties":{"OBJECTID":413413,"EVENT_ID":"INCD-983804-g","TYPE":"PLANNED","STATUS":"Scheduled","CUSTOMERS_AFFECTED":3,"SUBURBS":"MALENY","STREETS":"PALM ST","START":1791324000000,"FINISH":null,"EST_FIX_TIME":1791349200000,"REASON":"Planned Maintenance","CRC":"841763A4","EXTRACTED":1790892004785,"SHAPE__Area":10281.78515625,"SHAPE__Length":388.39688751162242}},{"type":"Feature","id":413414,"geometry":{"type":"Polygon","coordinates":[[[152.360950282668,-27.0245936235491],[152.360838398279,-27.024222024381],[152.365448622641,-27.0011368623234],[152.365789329952,-27.0007869134],[152.398687088863,-26.9912322334446],[152.399265364306,-26.9914160447453],[152.405806117478,-27.0004525853256],[152.405846216374,-27.0008765563416],[152.392906636802,-27.0278147802524],[152.392860039985,-27.0278907204048],[152.380408129737,-27.0442368988936],[152.379607385006,-27.0442746616621],[152.360950282668,-27.0245936235491]]]},"properties":{"OBJECTID":413414,"EVENT_ID":"INCD-982710-g","TYPE":"PLANNED","STATUS":"Scheduled","CUSTOMERS_AFFECTED":64,"SUBURBS":"BRAEMORE, GREGORS CREEK, HARLIN, TOOGOOLAWAH, YIMBUN","STREETS":"BRAEMORE LANE, BRISBANE VALLEY HWY, GREGORS CREEK RD, STAGHURST RD","START":1791324000000,"FINISH":null,"EST_FIX_TIME":1791345600000,"REASON":"Planned Maintenance","CRC":"5010B830","EXTRACTED":1790892004785,"SHAPE__Area":19761360.8359375,"SHAPE__Length":17801.770476056245}},{"type":"Feature","id":413415,"geometry":{"type":"Polygon","coordinates":[[[153.048233930509,-26.738045882128],[153.048671692906,-26.7375577734458],[153.048828541655,-26.7375399776904],[153.048846529291,-26.7375382314373],[153.050559273575,-26.7373998886185],[153.05094286359,-26.737369193599],[153.050943378075,-26.7373691526684],[153.051056026703,-26.7373602430468],[153.051333065006,-26.7374098637543],[153.051994103545,-26.7377201124749],[153.052245586705,-26.7379992036741],[153.052654492125,-26.7393189326226],[153.052402026163,-26.7398404726791],[153.052284505948,-26.7398953324645],[153.052115524246,-26.7399426810631],[153.051590871571,-26.7400021315247],[153.051557642937,-26.7400048945481],[153.05147734307,-26.7400091646027],[153.05109370851,-26.7400295273384],[153.05108659776,-26.7400298594101],[153.049083109672,-26.7401106408544],[153.048988178474,-26.7401063934077],[153.048865898703,-26.7400904227921],[153.048438752098,-26.7396951352605],[153.048255586579,-26.7382616650219],[153.048254309647,-26.7382504327852],[153.048233930509,-26.738045882128]]]},"properties":{"OBJECTID":413415,"EVENT_ID":"INCD-981887-g","TYPE":"PLANNED","STATUS":"Scheduled","CUSTOMERS_AFFECTED":140,"SUBURBS":"PALMVIEW","STREETS":"CHITTICK CRES, FICUS DR, GREENMOUNT DR, MARARA WALK, NEEDLEWOOD ST, PINKWOOD ST, SILVERLEAF ST, VELVET WAY, VINTAGE ST","START":1791324000000,"FINISH":null,"EST_FIX_TIME":1791351000000,"REASON":"Planned Maintenance","CRC":"E0EC7DA4","EXTRACTED":1790892004785,"SHAPE__Area":141487.359375,"SHAPE__Length":1417.7742276743529}},{"type":"Feature","id":413416,"geometry":{"type":"Polygon","coordinates":[[[152.429696507601,-27.554502616157],[152.429531021173,-27.5539772661429],[152.430054117448,-27.553693744944],[152.431394752602,-27.5538168740172],[152.431808941725,-27.5540893325495],[152.432358315474,-27.5552414957118],[152.432203651118,-27.5557739790615],[152.431586520295,-27.5557779148524],[152.429696507601,-27.554502616157]]]},"properties":{"OBJECTID":413416,"EVENT_ID":"INCD-981766-g","TYPE":"PLANNED","STATUS":"Scheduled","CUSTOMERS_AFFECTED":3,"SUBURBS":"PLAINLAND","STREETS":"MOUNTAIN VIEW DR","START":1791324000000,"FINISH":null,"EST_FIX_TIME":1791352800000,"REASON":"Planned Maintenance","CRC":"1140A6F3","EXTRACTED":1790892004785,"SHAPE__Area":50206.6015625,"SHAPE__Length":903.39430766188173}},{"type":"Feature","id":413417,"geometry":{"type":"Polygon","coordinates":[[[152.815170281287,-27.5999704768168],[152.814534337926,-27.5997733798299],[152.814679664628,-27.5991876551324],[152.815133853653,-27.5988948059392],[152.815931985124,-27.599327348698],[152.815909475183,-27.5994612190971],[152.815601961868,-27.599811496401],[152.815170281287,-27.5999704768168]]]},"properties":{"OBJECTID":413417,"EVENT_ID":"INCD-980547-g","TYPE":"PLANNED","STATUS":"Scheduled","CUSTOMERS_AFFECTED":3,"SUBURBS":"BUNDAMBA","STREETS":"BOGNUDA ST","START":1791324000000,"FINISH":null,"EST_FIX_TIME":1791349200000,"REASON":"Planned Maintenance","CRC":"61658471","EXTRACTED":1790892004785,"SHAPE__Area":13514.34375,"SHAPE__Length":441.78776521949413}},{"type":"Feature","id":413418,"geometry":{"type":"Polygon","coordinates":[[[152.992158604627,-27.776012267077],[152.99252899251,-27.7755728324433],[152.996248529358,-27.7746447257758],[152.996428617696,-27.7746295699619],[152.997363494054,-27.7747002896439],[152.997458234409,-27.7747156112414],[152.998145994407,-27.7748881250273],[152.998151340744,-27.77488949424],[152.998531827457,-27.7749889494713],[152.99888838429,-27.7755010507788],[152.998834484732,-27.7757706205372],[152.998462582637,-27.7761284311588],[152.994771888759,-27.7769821640118],[152.994579178271,-27.776992978677],[152.993660074125,-27.7768874296213],[152.993643795537,-27.7768853210372],[152.992588161648,-27.7767330001046],[152.992161973542,-27.7762922769549],[152.992158604627,-27.776012267077]]]},"properties":{"OBJECTID":413418,"EVENT_ID":"INCD-978081-g","TYPE":"PLANNED","STATUS":"Scheduled","CUSTOMERS_AFFECTED":18,"SUBURBS":"NORTH MACLEAN","STREETS":"DUNDEE RD","START":1791324000000,"FINISH":null,"EST_FIX_TIME":1791351000000,"REASON":"Planned Maintenance","CRC":"557DB66A","EXTRACTED":1790892004785,"SHAPE__Area":149352.48046875,"SHAPE__Length":1708.5559725730584}},{"type":"Feature","id":413419,"geometry":{"type":"Polygon","coordinates":[[[152.360950282668,-27.0245936235491],[152.360838398279,-27.024222024381],[152.365448622641,-27.0011368623234],[152.365789329952,-27.0007869134],[152.398687088863,-26.9912322334446],[152.399265364306,-26.9914160447453],[152.405806117478,-27.0004525853256],[152.405846216374,-27.0008765563416],[152.392906636802,-27.0278147802524],[152.392860039985,-27.0278907204048],[152.380408129737,-27.0442368988936],[152.379607385006,-27.0442746616621],[152.360950282668,-27.0245936235491]]]},"properties":{"OBJECTID":413419,"EVENT_ID":"INCD-981698-g","TYPE":"PLANNED","STATUS":"Cancelled","CUSTOMERS_AFFECTED":64,"SUBURBS":"BRAEMORE, GREGORS CREEK, HARLIN, TOOGOOLAWAH, YIMBUN","STREETS":"BRAEMORE LANE, BRISBANE VALLEY HWY, GREGORS CREEK RD, STAGHURST RD","START":1791324000000,"FINISH":null,"EST_FIX_TIME":1791345600000,"REASON":"Planned Maintenance","CRC":"6B7930D9","EXTRACTED":1790892004785,"SHAPE__Area":19761360.8359375,"SHAPE__Length":17801.770476056245}},{"type":"Feature","id":413420,"geometry":{"type":"Polygon","coordinates":[[[153.06068864665,-27.299293523081],[153.060644250774,-27.2989589726351],[153.06119471694,-27.2971426345714],[153.06143816036,-27.2968654532566],[153.061690670089,-27.2967408638375],[153.061970907045,-27.2966857464365],[153.062554564534,-27.296722936503],[153.063020561423,-27.297225068556],[153.062661364142,-27.2999994692022],[153.062431372244,-27.3003280532596],[153.06220127226,-27.3004593238952],[153.061787737759,-27.3005122042895],[153.061568776778,-27.3004551144075],[153.061267003688,-27.3002383652324],[153.06068864665,-27.299293523081]]]},"properties":{"OBJECTID":413420,"EVENT_ID":"INCD-981773-g","TYPE":"PLANNED","STATUS":"Scheduled","CUSTOMERS_AFFECTED":49,"SUBURBS":"BRIGHTON","STREETS":"BEACONSFIELD TCE, SIXTEENTH AVE, TOWNSEND ST","START":1791324000000,"FINISH":null,"EST_FIX_TIME":1791351000000,"REASON":"Planned Maintenance","CRC":"88F2852C","EXTRACTED":1790892004785,"SHAPE__Area":93868.52734375,"SHAPE__Length":1211.2656448579285}},{"type":"Feature","id":413421,"geometry":{"type":"Polygon","coordinates":[[[153.326530568977,-27.7470519351115],[153.326666276453,-27.7465958496114],[153.327465846121,-27.7459168913215],[153.327668794838,-27.7458114904025],[153.330699645045,-27.7449930734164],[153.331048415454,-27.7450107146576],[153.336465378603,-27.7470953259597],[153.336468636678,-27.7470965917519],[153.337714643306,-27.7475853006664],[153.337944031198,-27.7482320305798],[153.336123469004,-27.7509082257351],[153.335872669667,-27.7510954149933],[153.335633488955,-27.7511778356334],[153.335344195669,-27.7511983381598],[153.327713255368,-27.7497471733994],[153.327333320883,-27.7494353376987],[153.326530568977,-27.7470519351115]]]},"properties":{"OBJECTID":413421,"EVENT_ID":"INCD-979517-g","TYPE":"PLANNED","STATUS":"Scheduled","CUSTOMERS_AFFECTED":18,"SUBURBS":"STEIGLITZ, WOONGOOLBA","STREETS":"CABBAGE TREE POINT RD, STAPYLTON JACOBS WELL RD","START":1791324000000,"FINISH":null,"EST_FIX_TIME":1791349200000,"REASON":"Planned Maintenance","CRC":"C1B62489","EXTRACTED":1790892004785,"SHAPE__Area":661626.58203125,"SHAPE__Length":3225.1391836971998}},{"type":"Feature","id":413422,"geometry":{"type":"Polygon","coordinates":[[[152.884619093673,-27.0426700645235],[152.884487250957,-27.0420911881366],[152.88955970406,-27.0340113591677],[152.890091817809,-27.033788835961],[152.890498149529,-27.0341685401122],[152.892580645401,-27.0471821164943],[152.892335778751,-27.0476359974247],[152.891773973944,-27.0476038188017],[152.884619093673,-27.0426700645235]]]},"properties":{"OBJECTID":413422,"EVENT_ID":"INCD-982244-g","TYPE":"PLANNED","STATUS":"Scheduled","CUSTOMERS_AFFECTED":15,"SUBURBS":"WAMURAN","STREETS":"CHILD RD, D'AGUILAR HWY, LOCK RD, TURNBULL RD","START":1791324000000,"FINISH":null,"EST_FIX_TIME":1791351000000,"REASON":"Planned Maintenance","CRC":"67D994C0","EXTRACTED":1790892004785,"SHAPE__Area":797684.83203125,"SHAPE__Length":4137.5839095959973}},{"type":"Feature","id":413423,"geometry":{"type":"Polygon","coordinates":[[[152.702900952209,-26.2344188760427],[152.70271174003,-26.2338854805892],[152.703243587964,-26.233596409474],[152.708838622744,-26.234238777455],[152.708936379092,-26.2342591392555],[152.720680877651,-26.2378552530729],[152.720709125712,-26.2378647659333],[152.728722793512,-26.2408140946208],[152.729011334913,-26.2413672089287],[152.728424204454,-26.2416726590648],[152.713974700681,-26.2387527995094],[152.713942734009,-26.238745331598],[152.707060430491,-26.2369168858776],[152.70692251008,-26.2368584335258],[152.702900952209,-26.2344188760427]]]},"properties":{"OBJECTID":413423,"EVENT_ID":"INCD-980637-g","TYPE":"PLANNED","STATUS":"Scheduled","CUSTOMERS_AFFECTED":11,"SUBURBS":"WOONDUM","STREETS":"KEEFTON RD","START":1791324000000,"FINISH":null,"EST_FIX_TIME":1791349200000,"REASON":"Planned Maintenance","CRC":"CBC48D96","EXTRACTED":1790892004785,"SHAPE__Area":817763.90234375,"SHAPE__Length":6287.17003528105}},{"type":"Feature","id":413424,"geometry":{"type":"Polygon","coordinates":[[[152.906776012259,-27.0867634716376],[152.906790708717,-27.0859740717586],[152.91259858322,-27.0832023906395],[152.913291093771,-27.0834064431792],[152.916180342458,-27.0888300942184],[152.915681289174,-27.0894741071052],[152.913095528337,-27.0892722960973],[152.913046803363,-27.089266338713],[152.911029025855,-27.088929216848],[152.910869622222,-27.088876517628],[152.906776012259,-27.0867634716376]]]},"properties":{"OBJECTID":413424,"EVENT_ID":"INCD-980775-g","TYPE":"PLANNED","STATUS":"Scheduled","CUSTOMERS_AFFECTED":29,"SUBURBS":"BELLMERE","STREETS":"BELLS LANE, CURRAWONG PL, CYGNET LANE, EMILY CT, GUILFORD CT","START":1791324000000,"FINISH":null,"EST_FIX_TIME":1791351000000,"REASON":"Planned Maintenance","CRC":"CB2FA535","EXTRACTED":1790892004785,"SHAPE__Area":477927.6796875,"SHAPE__Length":2830.4767458018327}},{"type":"Feature","id":413425,"geometry":{"type":"Polygon","coordinates":[[[153.440702974247,-28.0853730743177],[153.440941936299,-28.0849775500523],[153.441892724246,-28.0844504514189],[153.442210629775,-28.0843838535037],[153.443358534603,-28.0844806033362],[153.443411030557,-28.0844874925688],[153.443640579527,-28.0845285629692],[153.443656081178,-28.0845315602314],[153.445476674457,-28.0849100187379],[153.445836957176,-28.0855081726024],[153.445638579512,-28.0859765427081],[153.445441914149,-28.0861948679314],[153.442604378702,-28.0878507735744],[153.441973828798,-28.0878007227986],[153.441677257912,-28.0875504825229],[153.441675177869,-28.0875487174524],[153.441528047443,-28.087423157342],[153.441500220413,-28.0873974582176],[153.441314861414,-28.0872121571986],[153.441211753065,-28.0870526532117],[153.440796357222,-28.0859237521337],[153.440795384119,-28.0859210793797],[153.440735095211,-28.0857537086958],[153.440711163132,-28.0856291540398],[153.440702974247,-28.0853730743177]]]},"properties":{"OBJECTID":413425,"EVENT_ID":"INCD-976759-g","TYPE":"PLANNED","STATUS":"Scheduled","CUSTOMERS_AFFECTED":76,"SUBURBS":"BURLEIGH WATERS","STREETS":"BURLEIGH ST, CURLEW CRES, EAGLE AVE, EGRET AVE, SANDPIPER DR","START":1791324000000,"FINISH":null,"EST_FIX_TIME":1791352800000,"REASON":"Planned Maintenance","CRC":"92DBF7E0","EXTRACTED":1790892004785,"SHAPE__Area":169939.2265625,"SHAPE__Length":1569.3724924336243}},{"type":"Feature","id":413426,"geometry":{"type":"Polygon","coordinates":[[[153.388946127782,-27.8908930771983],[153.388521618897,-27.8903584944923],[153.388751583215,-27.889330615198],[153.38879792257,-27.8892124520469],[153.388863343348,-27.8890992427053],[153.389039710066,-27.8889262101308],[153.389657889128,-27.8885715806612],[153.389921742944,-27.8884995304823],[153.390230081518,-27.8884932208735],[153.39070191395,-27.889135734981],[153.39066096446,-27.8892135049748],[153.39065851449,-27.8892180905227],[153.390325266343,-27.8898328717363],[153.390299626746,-27.8898744364214],[153.389712498037,-27.8907178881396],[153.389206698436,-27.8909270472976],[153.388946127782,-27.8908930771983]]]},"properties":{"OBJECTID":413426,"EVENT_ID":"INCD-979721-g","TYPE":"PLANNED","STATUS":"Scheduled","CUSTOMERS_AFFECTED":29,"SUBURBS":"HOLLYWELL, PARADISE POINT","STREETS":"MOIRA CT, PARADISE PDE","START":1791324000000,"FINISH":null,"EST_FIX_TIME":1791352800000,"REASON":"Planned Maintenance","CRC":"77399114","EXTRACTED":1790892004785,"SHAPE__Area":47343.3671875,"SHAPE__Length":838.38398374714711}},{"type":"Feature","id":413427,"geometry":{"type":"Polygon","coordinates":[[[153.127308059975,-26.7661732349534],[153.127297061236,-26.7653717160274],[153.127524095242,-26.7652628601766],[153.127699381561,-26.7652130217049],[153.128881327206,-26.7650819522239],[153.129386526753,-26.7657427894646],[153.129022158117,-26.7663547407173],[153.128623501393,-26.7665915825178],[153.12843638072,-26.7666066327091],[153.128165556737,-26.766560310328],[153.127308059975,-26.7661732349534]]]},"properties":{"OBJECTID":413427,"EVENT_ID":"INCD-981776-g","TYPE":"PLANNED","STATUS":"Scheduled","CUSTOMERS_AFFECTED":15,"SUBURBS":"CURRIMUNDI","STREETS":"LARA ST, WESTAWAY PDE","START":1791324000000,"FINISH":null,"EST_FIX_TIME":1791349200000,"REASON":"Planned Maintenance","CRC":"455C8371","EXTRACTED":1790892004785,"SHAPE__Area":33054.44921875,"SHAPE__Length":679.7309868676623}},{"type":"Feature","id":413428,"geometry":{"type":"Polygon","coordinates":[[[153.013461683279,-27.7555575245732],[153.013795275158,-27.7549031495314],[153.022243674147,-27.7531866160241],[153.022416281262,-27.7531784088552],[153.022891279714,-27.7532284090688],[153.023170054082,-27.7533403340392],[153.023440053587,-27.7535553327726],[153.023599019472,-27.7539809449906],[153.022813215016,-27.7574453084653],[153.02225160814,-27.7578037724998],[153.021418284736,-27.7577091619689],[153.02140113066,-27.757706948825],[153.014373891759,-27.7566908255807],[153.01400876123,-27.75645961716],[153.013461683279,-27.7555575245732]]]},"properties":{"OBJECTID":413428,"EVENT_ID":"INCD-981516-g","TYPE":"PLANNED","STATUS":"Scheduled","CUSTOMERS_AFFECTED":23,"SUBURBS":"MUNRUBEN","STREETS":"CROWSON LANE, STANLEY CT","START":1791324000000,"FINISH":null,"EST_FIX_TIME":1791349200000,"REASON":"Planned Maintenance","CRC":"3AD5A312","EXTRACTED":1790892004785,"SHAPE__Area":437032.81640625,"SHAPE__Length":2847.0674014557571}},{"type":"Feature","id":413429,"geometry":{"type":"Polygon","coordinates":[[[152.967729024249,-27.949733245536],[152.967751833869,-27.9495164809589],[152.970925743071,-27.941464771569],[152.971373341433,-27.9411634301264],[152.978885722279,-27.9407407911279],[152.979415005744,-27.9410973559467],[152.98357977405,-27.9584843203065],[152.983585236546,-27.9585110504064],[152.985243902275,-27.9682943945932],[152.984641390939,-27.9688041706731],[152.973169924881,-27.9667647240376],[152.972811296776,-27.966517177045],[152.969600334152,-27.9605665262682],[152.969556176206,-27.9604391416342],[152.967729024249,-27.949733245536]]]},"properties":{"OBJECTID":413429,"EVENT_ID":"INCD-981595-g","TYPE":"PLANNED","STATUS":"Scheduled","CUSTOMERS_AFFECTED":17,"SUBURBS":"BROMELTON, GLENEAGLE","STREETS":"ALLAN CREEK RD, BROMELTON HOUSE RD, MT LINDESAY HWY","START":1791324000000,"FINISH":null,"EST_FIX_TIME":1791349200000,"REASON":"Planned Maintenance","CRC":"494D9AF9","EXTRACTED":1790892004785,"SHAPE__Area":4825640.5234375,"SHAPE__Length":9224.5390782117029}},{"type":"Feature","id":413430,"geometry":{"type":"Polygon","coordinates":[[[152.428536434178,-27.5556247673399],[152.428560234554,-27.5551184113025],[152.429595361853,-27.5538739345536],[152.429807946055,-27.5537258922018],[152.438096020368,-27.5506574719759],[152.438631412257,-27.5507406851775],[152.442224391917,-27.5536588765933],[152.442346002161,-27.5541759824908],[152.440882061614,-27.5571087870637],[152.440723400823,-27.5572862837443],[152.436874055074,-27.5598617734441],[152.436571327194,-27.5599521682653],[152.43183271783,-27.5599632077506],[152.431400750934,-27.5597493858992],[152.428536434178,-27.5556247673399]]]},"properties":{"OBJECTID":413430,"EVENT_ID":"INCD-980921-g","TYPE":"PLANNED","STATUS":"Scheduled","CUSTOMERS_AFFECTED":87,"SUBURBS":"HATTON VALE, PLAINLAND, REGENCY DOWNS","STREETS":"EDGERTON DR, MITCHELL CT, MOUNTAIN VIEW DR, NATHAN CT, ZISCHKE RD","START":1791324000000,"FINISH":null,"EST_FIX_TIME":1791347400000,"REASON":"Planned Maintenance","CRC":"50F0B3B6","EXTRACTED":1790892004785,"SHAPE__Area":1207078.22265625,"SHAPE__Length":4151.2834363041366}},{"type":"Feature","id":413431,"geometry":{"type":"Polygon","coordinates":[[[153.0231223902,-27.4948287593307],[153.023543953698,-27.4942177492984],[153.02358519295,-27.4942140291168],[153.023856546866,-27.4942567759089],[153.024135056847,-27.4943769062519],[153.024171363943,-27.4943942255411],[153.024459082916,-27.4945452048711],[153.024477015841,-27.4945550687914],[153.024625225499,-27.4946404380911],[153.024893580911,-27.4947950313567],[153.024932881682,-27.4955282678164],[153.024406610168,-27.4958993703576],[153.023692988899,-27.4958223298665],[153.023658669637,-27.4957829593744],[153.023612760455,-27.495720147377],[153.023258191341,-27.4951336959942],[153.02323123854,-27.4950813795411],[153.0231223902,-27.4948287593307]]]},"properties":{"OBJECTID":413431,"EVENT_ID":"INCD-982821-g","TYPE":"PLANNED","STATUS":"Scheduled","CUSTOMERS_AFFECTED":35,"SUBURBS":"DUTTON PARK","STREETS":"GLADSTONE RD","START":1791325800000,"FINISH":null,"EST_FIX_TIME":1791347400000,"REASON":"Planned Maintenance","CRC":"CC1A5C41","EXTRACTED":1790893804052,"SHAPE__Area":29957.5546875,"SHAPE__Length":646.406625686983}},{"type":"Feature","id":413432,"geometry":{"type":"Polygon","coordinates":[[[153.433685826861,-28.0476476279822],[153.433078044991,-28.047132956987],[153.433122615458,-28.0468923076583],[153.433467901338,-28.0465360887905],[153.434782717018,-28.0461583594424],[153.434830430794,-28.046146891363],[153.435001830177,-28.0461135315398],[153.435580117389,-28.0463801011544],[153.435388361856,-28.0469326810172],[153.434458089686,-28.0474698635436],[153.434287757362,-28.0475328003142],[153.433787725519,-28.0476284102989],[153.433786316726,-28.0476286778169],[153.433685826861,-28.0476476279822]]]},"properties":{"OBJECTID":413432,"EVENT_ID":"INCD-984092-g","TYPE":"PLANNED","STATUS":"Cancelled","CUSTOMERS_AFFECTED":33,"SUBURBS":"MERMAID BEACH","STREETS":"GOLD COAST HWY, SPORTSMAN AVE","START":1791325800000,"FINISH":null,"EST_FIX_TIME":1791333000000,"REASON":"Planned Maintenance","CRC":"23556963","EXTRACTED":1790898004107,"SHAPE__Area":33428.125,"SHAPE__Length":721.00028659968086}},{"type":"Feature","id":413433,"geometry":{"type":"Polygon","coordinates":[[[152.988169864207,-27.7453467955325],[152.988276708432,-27.7447202846739],[152.988982371499,-27.7448062014356],[152.991658096513,-27.7478945331607],[152.991578773662,-27.7485185588928],[152.990875174599,-27.7484680859125],[152.990129524885,-27.7477132636723],[152.990110266066,-27.7476925555688],[152.989705917185,-27.7472304243472],[152.989695581426,-27.7472181890746],[152.988169864207,-27.7453467955325]]]},"properties":{"OBJECTID":413433,"EVENT_ID":"INCD-978359-g","TYPE":"PLANNED","STATUS":"Scheduled","CUSTOMERS_AFFECTED":5,"SUBURBS":"MUNRUBEN","STREETS":"GREENBANK RD","START":1791327600000,"FINISH":null,"EST_FIX_TIME":1791347400000,"REASON":"Planned Maintenance","CRC":"28C283B3","EXTRACTED":1790895603514,"SHAPE__Area":64327.38671875,"SHAPE__Length":1301.2598700067838}},{"type":"Feature","id":413434,"geometry":{"type":"Polygon","coordinates":[[[153.00267010704,-27.4828240026346],[153.002248038232,-27.4823559887278],[153.00272087059,-27.4819283188796],[153.003595757121,-27.4818778687688],[153.004113059952,-27.4824584587522],[153.004054939921,-27.4826306293214],[153.003486879591,-27.482945723173],[153.00267010704,-27.4828240026346]]]},"properties":{"OBJECTID":413434,"EVENT_ID":"INCD-981992-g","TYPE":"PLANNED","STATUS":"Scheduled","CUSTOMERS_AFFECTED":2,"SUBURBS":"WEST END","STREETS":"MONTAGUE RD, VICTORIA ST","START":1791331200000,"FINISH":null,"EST_FIX_TIME":1791343800000,"REASON":"Planned Maintenance","CRC":"547297DB","EXTRACTED":1790899204289,"SHAPE__Area":19300.12109375,"SHAPE__Length":530.16514315141035}},{"type":"Feature","id":413439,"geometry":{"type":"Polygon","coordinates":[[[152.853912450437,-27.2300921825551],[152.853968835985,-27.2298092304221],[152.866296939282,-27.2096451784269],[152.866506015438,-27.2094616432542],[152.873707476384,-27.2060942835392],[152.874120466559,-27.2060722001517],[152.885707962319,-27.2099999951365],[152.885877325432,-27.2100953183488],[152.891057715501,-27.2145090947633],[152.891192121591,-27.2147035499423],[152.894177756209,-27.223407638899],[152.893896678501,-27.2239538331015],[152.859404163117,-27.2373821057858],[152.859124532799,-27.237414204025],[152.856361201723,-27.2370278129453],[152.856073409787,-27.2368930049805],[152.855926020139,-27.2367545538201],[152.855813079322,-27.2365869497756],[152.854354413308,-27.2327002850271],[152.85433368927,-27.2326231436466],[152.853912450437,-27.2300921825551]]]},"properties":{"OBJECTID":413439,"EVENT_ID":"INCD-980642-g","TYPE":"PLANNED","STATUS":"Cancelled","CUSTOMERS_AFFECTED":72,"SUBURBS":"DAYBORO, KURWONGBAH, RUSH CREEK, SAMSONVALE, WHITESIDE","STREETS":"BUSHLAND DR, BUTTERFLY CRES, DAYBORO RD, HAVEN CT, RUSH CREEK RD, VALLEY VIEW CT, WHITESIDE RD","START":1791367200000,"FINISH":null,"EST_FIX_TIME":1791396000000,"REASON":"Planned Maintenance","CRC":"EB71D989","EXTRACTED":1790935204420,"SHAPE__Area":10306557.0390625,"SHAPE__Length":12800.011399536088}},{"type":"Feature","id":413440,"geometry":{"type":"Polygon","coordinates":[[[152.8724450185,-27.2106819716123],[152.872442349689,-27.2101042209178],[152.876062433373,-27.2061847399401],[152.876931423777,-27.2063313590092],[152.877931805186,-27.2090555957013],[152.877952832242,-27.2091385349312],[152.878505729698,-27.2129621128408],[152.878200796733,-27.2134360795087],[152.876202460643,-27.2141877524839],[152.875620016075,-27.2140619794055],[152.8724450185,-27.2106819716123]]]},"properties":{"OBJECTID":413440,"EVENT_ID":"INCD-980194-g","TYPE":"PLANNED","STATUS":"Scheduled","CUSTOMERS_AFFECTED":8,"SUBURBS":"DAYBORO, RUSH CREEK","STREETS":"DAYBORO RD, RUSH CREEK RD","START":1791367200000,"FINISH":null,"EST_FIX_TIME":1791396000000,"REASON":"Planned Maintenance","CRC":"DF0D02DD","EXTRACTED":1790935204420,"SHAPE__Area":421395.078125,"SHAPE__Length":2585.4748510865425}},{"type":"Feature","id":413441,"geometry":{"type":"Polygon","coordinates":[[[152.866319534645,-27.2101115892478],[152.866506015438,-27.2094616432542],[152.873707476384,-27.2060942835392],[152.873936495301,-27.2060428980483],[152.876446756106,-27.2060207785245],[152.876931423777,-27.2063313590092],[152.877931805186,-27.2090555957013],[152.877952832242,-27.2091385349312],[152.878505729698,-27.2129621128408],[152.878200796733,-27.2134360795087],[152.876202460643,-27.2141877524839],[152.876160366642,-27.2142016516337],[152.871692010698,-27.2154783166929],[152.871461023009,-27.215494416932],[152.870411688901,-27.2153490860623],[152.87006852575,-27.2151529292976],[152.866319534645,-27.2101115892478]]]},"properties":{"OBJECTID":413441,"EVENT_ID":"INCD-979267-g","TYPE":"PLANNED","STATUS":"Cancelled","CUSTOMERS_AFFECTED":20,"SUBURBS":"DAYBORO, RUSH CREEK","STREETS":"DAYBORO RD, RUSH CREEK RD","START":1791367200000,"FINISH":null,"EST_FIX_TIME":1791396000000,"REASON":"Planned Maintenance","CRC":"9C254242","EXTRACTED":1790935204420,"SHAPE__Area":1108114.4765625,"SHAPE__Length":3997.1546024482159}},{"type":"Feature","id":413442,"geometry":{"type":"Polygon","coordinates":[[[152.853912450437,-27.2300921825551],[152.853968835985,-27.2298092304221],[152.866296939282,-27.2096451784269],[152.866506015438,-27.2094616432542],[152.873707476384,-27.2060942835392],[152.874120466559,-27.2060722001517],[152.885707962319,-27.2099999951365],[152.885877325432,-27.2100953183488],[152.891057715501,-27.2145090947633],[152.891192121591,-27.2147035499423],[152.894177756209,-27.223407638899],[152.893896678501,-27.2239538331015],[152.859404163117,-27.2373821057858],[152.859124532799,-27.237414204025],[152.856361201723,-27.2370278129453],[152.856073409787,-27.2368930049805],[152.855926020139,-27.2367545538201],[152.855813079322,-27.2365869497756],[152.854354413308,-27.2327002850271],[152.85433368927,-27.2326231436466],[152.853912450437,-27.2300921825551]]]},"properties":{"OBJECTID":413442,"EVENT_ID":"INCD-980658-g","TYPE":"PLANNED","STATUS":"Scheduled","CUSTOMERS_AFFECTED":72,"SUBURBS":"DAYBORO, KURWONGBAH, RUSH CREEK, SAMSONVALE, WHITESIDE","STREETS":"BUSHLAND DR, BUTTERFLY CRES, DAYBORO RD, HAVEN CT, RUSH CREEK RD, VALLEY VIEW CT, WHITESIDE RD","START":1791367200000,"FINISH":null,"EST_FIX_TIME":1791396000000,"REASON":"Planned Maintenance","CRC":"726BEA7B","EXTRACTED":1790935204420,"SHAPE__Area":10306557.0390625,"SHAPE__Length":12800.011399536088}}]}