{"type":"FeatureCollection","features":[{"type":"Feature","id":911434,"geometry":{"type":"Polygon","coordinates":[[[151.957406190545,-27.5630467733404],[151.95793232346,-27.5624191595377],[151.959127291913,-27.562554889686],[151.959304970274,-27.5626060873991],[151.959964208778,-27.5629260319152],[151.960211301085,-27.5632075456384],[151.960532286822,-27.5643027233847],[151.959816828989,-27.5648185635131],[151.958998645671,-27.5644519770605],[151.958942982355,-27.5644229276118],[151.957844234784,-27.5637620766106],[151.957664459165,-27.5635701949451],[151.957406190545,-27.5630467733404]]]},"properties":{"OBJECTID":911434,"EVENT_ID":"26SW11867","TYPE":"UNPLANNED","STATUS":"Outage reported","CUSTOMERS_AFFECTED":18,"SUBURBS":"EAST TOOWOOMBA, TOOWOOMBA","STREETS":"HUME ST, KITCHENER ST, PHILLIP ST","START":1790753189000,"FINISH":null,"EST_FIX_TIME":null,"REASON":"The loss of supply is due to damage requiring emergency repairs. Fault finding is in progress.","CRC":"EF4D1F6E","EXTRACTED":1790835605433,"SHAPE__Area":65108.31640625,"SHAPE__Length":986.41477571174335}},{"type":"Feature","id":911491,"geometry":{"type":"Polygon","coordinates":[[[144.825214864133,-15.8162923688941],[144.825175563343,-15.8158675431039],[144.836480858654,-15.7901447156159],[144.836651657236,-15.7899455253998],[145.020517667974,-15.6712966052167],[145.021115158165,-15.6713619951],[145.021149398122,-15.6719436053612],[144.925152974114,-15.795794251375],[144.925119488707,-15.7958327474251],[144.85846286395,-15.864289150619],[144.857733215922,-15.8642272249123],[144.825214864133,-15.8162923688941]]]},"properties":{"OBJECTID":911491,"EVENT_ID":"26FN9647","TYPE":"UNPLANNED","STATUS":"Crews on route","CUSTOMERS_AFFECTED":38,"SUBURBS":"LAKELAND","STREETS":"ANDERSON ST, DAWSON RD, HURSE RD, MULLIGAN HWY, PENINSULA DEVELOPMENT RD, UNKNOWN ST","START":1790866831000,"FINISH":null,"EST_FIX_TIME":null,"REASON":"The loss of supply is due to damage requiring emergency repairs. Fault finding is in progress.","CRC":"993738BE","EXTRACTED":1790881804685,"SHAPE__Area":126417136.77734375,"SHAPE__Length":63521.64280985573}},{"type":"Feature","id":911492,"geometry":{"type":"Polygon","coordinates":[[[152.821731093873,-25.2718479211634],[152.821716441878,-25.271352264027],[152.822200977265,-25.2706450674811],[152.822856582041,-25.2704876601302],[152.82520195502,-25.2716452988436],[152.82543909935,-25.2719094997794],[152.825547500671,-25.2722332372678],[152.825082915861,-25.2728137513108],[152.823820984655,-25.2728333821363],[152.823760629745,-25.2728309646398],[152.822610588418,-25.2727205998023],[152.822257443445,-25.272531369453],[152.821731093873,-25.2718479211634]]]},"properties":{"OBJECTID":911492,"EVENT_ID":"26WB9089","TYPE":"UNPLANNED","STATUS":"Crews working on-site","CUSTOMERS_AFFECTED":21,"SUBURBS":"PIALBA","STREETS":"CHRISTOPH CT, HELVIG CCT, JANNIK TCE","START":1790874300000,"FINISH":null,"EST_FIX_TIME":null,"REASON":"The loss of supply is due to damage requiring emergency repairs. ","CRC":"1CD267F9","EXTRACTED":1790881804685,"SHAPE__Area":84955.328125,"SHAPE__Length":1132.3316725143438}}]}